OBJECT_NAME,OBJECT_ID,EPOCH,MEAN_MOTION,ECCENTRICITY,INCLINATION,RA_OF_ASC_NODE,ARG_OF_PERICENTER,MEAN_ANOMALY,EPHEMERIS_TYPE,CLASSIFICATION_TYPE,NORAD_CAT_ID,ELEMENT_SET_NO,REV_AT_EPOCH,BSTAR,MEAN_MOTION_DOT,MEAN_MOTION_DDOT
USA 167,2003-008A,2026-07-13T14:35:55.977792,1.00270235,.0003379,11.0120,43.1672,309.3771,36.1796,0,U,27691,999,703,0,-.7E-7,0
USA 169 (MILSTAR-2 4),2003-012A,2026-07-13T11:27:10.439424,1.00273417,.00992836,12.3880,29.6231,10.1906,215.4739,0,U,27711,999,3321,0,-.207E-5,0
ASIASAT 4,2003-014A,2026-07-13T13:11:44.701152,1.00270064,.0002911,4.7692,75.4149,39.0890,162.3871,0,U,27718,999,4556,0,-.231E-5,0
HELLAS-SAT 2,2003-020A,2026-07-13T20:15:37.844064,1.00271307,.0003545,7.4185,67.5618,80.5164,77.5118,0,U,27811,999,4311,0,-.95E-6,0
THURAYA-2,2003-026A,2026-07-13T17:05:34.944864,1.00273356,.0002482,8.8794,31.8533,25.4860,174.6510,0,U,27825,999,8461,0,.115E-5,0
OPTUS C1,2003-028B,2026-07-13T15:17:12.791040,1.00269241,.0005196,6.9534,69.0856,40.6583,206.7759,0,U,27831,999,5332,0,-.162E-5,0
USA 170,2003-040A,2026-07-13T18:42:38.060352,1.00274489,.0001764,10.5548,47.6912,78.4759,110.3759,0,U,27875,999,3326,0,.114E-5,0
GALAXY 13 (HORIZONS-1),2003-044A,2026-07-13T17:53:04.128288,1.00270637,.0002152,1.4857,83.5252,27.3083,299.0353,0,U,27954,999,4683,0,.126E-5,0
YAMAL 202,2003-053A,2026-07-13T19:11:29.003136,1.00272041,.0003267,6.4071,70.6137,41.6634,270.8087,0,U,28089,999,8296,0,-.91E-6,0
UFO 11 (USA 174),2003-057A,2026-07-13T20:52:47.986176,1.00270246,.000268,8.9566,33.6924,92.9080,193.9188,0,U,28117,999,8271,0,-.114E-5,0
USA 176 (DSP 22),2004-004A,2026-07-13T09:48:26.775072,1.00266283,.0001144,12.0970,25.8717,287.5538,75.5682,0,U,28158,999,3320,0,-.307E-5,0
ABS-4 (MOBISAT-1),2004-007A,2026-07-13T18:53:10.357152,1.00273052,.0004612,6.1062,71.6818,42.3108,161.9030,0,U,28184,999,5260,0,.29E-6,0
INTELSAT 10-02,2004-022A,2026-07-13T20:18:07.606368,1.00271184,.0000504,0.0548,249.8883,343.0769,2.2756,0,U,28358,999,8082,0,-.16E-6,0
ANIK F2,2004-027A,2026-07-13T14:38:48.204096,1.00271258,.000355,3.3535,79.0935,31.5919,289.3716,0,U,28378,999,4152,0,-.57E-6,0
AMC-15,2004-041A,2026-07-13T16:13:02.455968,1.00270544,.0002079,0.0307,311.3076,154.5279,323.9259,0,U,28446,999,7956,0,-.93E-6,0
NSS-10,2005-003A,2026-07-13T20:19:41.372832,1.00270414,.0002593,6.5141,70.1256,39.9970,89.0632,0,U,28526,999,5342,0,-.262E-5,0
INMARSAT 4-F1,2005-009A,2026-07-13T19:26:37.150080,1.00270943,.0002357,5.2034,42.7841,71.8828,286.7662,0,U,28628,999,7793,0,.24E-6,0
DIRECTV 8,2005-019A,2026-07-13T18:01:18.338016,1.00271366,.000303,0.0141,344.2437,142.9940,315.6561,0,U,28659,999,7733,0,-.3E-7,0
GALAXY 28 (G-28),2005-022A,2026-07-13T20:10:45.812064,1.00273598,.0002485,3.3650,78.6041,24.2488,104.4493,0,U,28702,999,5224,0,-.208E-5,0
THAICOM 4,2005-028A,2026-07-13T19:09:53.753184,1.00270373,.0001378,0.3118,85.5220,10.2341,242.8759,0,U,28786,999,5251,0,-.368E-5,0
ANIK F1R,2005-036A,2026-07-13T14:39:55.596096,1.00271332,.0003704,4.3779,76.2509,28.3603,299.5541,0,U,28868,999,4671,0,-.83E-6,0
SYRACUSE 3A,2005-041B,2026-07-13T20:31:46.750080,1.00273542,.0002734,4.7078,75.5114,32.6807,178.1153,0,U,28885,999,7601,0,.119E-5,0
INMARSAT 4-F2,2005-044A,2026-07-13T13:10:42.088800,1.00270497,.0002772,5.1293,43.6584,61.2305,167.7008,0,U,28899,999,7578,0,-.268E-5,0
METEOSAT-9 (MSG-2),2005-049B,2026-07-13T17:06:04.898016,1.00271253,.0002102,9.4193,53.9017,356.2419,183.6226,0,U,28912,999,726,0,.113E-5,0
EUTELSAT 174A,2005-052A,2026-07-13T19:25:29.758080,1.00270706,.0005784,4.2838,76.1966,38.5354,282.2675,0,U,28924,999,5259,0,-.1E-7,0
ECHOSTAR 10,2006-003A,2026-07-13T16:21:32.361120,1.00270707,.0001041,0.0329,312.3833,137.4861,336.8876,0,U,28935,999,7472,0,-.6E-6,0
SPAINSAT,2006-007A,2026-07-13T06:36:17.590176,1.00269770,.0004604,0.6285,86.0849,26.1877,247.7634,0,U,28945,999,7448,0,-.221E-5,0
JCSAT-5A,2006-010A,2026-07-13T20:56:04.774272,1.00269888,.0001638,1.1761,83.9161,25.9333,267.9447,0,U,29045,999,7403,0,-.334E-5,0
ASTRA 1KR,2006-012A,2026-07-13T19:46:38.790048,1.00269747,.0003287,0.5404,83.1765,21.8899,142.2860,0,U,29055,999,4596,0,.113E-5,0
GALAXY 16 (G-16),2006-023A,2026-07-13T19:50:04.899840,1.00271125,.0002502,0.0145,190.5303,294.4717,5.2134,0,U,29236,999,7324,0,-.132E-5,0
EUTELSAT 33F,2006-032A,2026-07-13T18:45:15.272064,1.00270978,.0003387,1.7281,81.9460,27.7096,136.3691,0,U,29270,999,4757,0,.149E-5,0
JCSAT-3A,2006-033A,2026-07-13T20:54:57.381408,1.00271116,.0001764,0.0123,356.7832,117.1779,259.5198,0,U,29272,999,4800,0,-.35E-5,0
