USA 167                 
1 27691U 03008A   26194.60828678 -.00000007  00000+0  00000+0 0  9999
2 27691  11.0120  43.1672 0003379 309.3771  36.1796  1.00270235  7039
USA 169 (MILSTAR-2 4)   
1 27711U 03012A   26194.47720416 -.00000207  00000+0  00000+0 0  9995
2 27711  12.3880  29.6231 0099283  10.1906 215.4739  1.00273417 33218
ASIASAT 4               
1 27718U 03014A   26194.54982293 -.00000231  00000+0  00000+0 0  9992
2 27718   4.7692  75.4149 0002911  39.0890 162.3871  1.00270064 45565
HELLAS-SAT 2            
1 27811U 03020A   26194.84418801 -.00000095  00000+0  00000+0 0  9993
2 27811   7.4185  67.5618 0003545  80.5164  77.5118  1.00271307 43119
THURAYA-2               
1 27825U 03026A   26194.71221001  .00000115  00000+0  00000+0 0  9996
2 27825   8.8794  31.8533 0002482  25.4860 174.6510  1.00273356 84616
OPTUS C1                
1 27831U 03028B   26194.63695360 -.00000162  00000+0  00000+0 0  9992
2 27831   6.9534  69.0856 0005196  40.6583 206.7759  1.00269241 53325
USA 170                 
1 27875U 03040A   26194.77960718  .00000114  00000+0  00000+0 0  9997
2 27875  10.5548  47.6912 0001764  78.4759 110.3759  1.00274489 33266
GALAXY 13 (HORIZONS-1)  
1 27954U 03044A   26194.74518667  .00000126  00000+0  00000+0 0  9991
2 27954   1.4857  83.5252 0002152  27.3083 299.0353  1.00270637 46830
YAMAL 202               
1 28089U 03053A   26194.79964124 -.00000091  00000+0  00000+0 0  9991
2 28089   6.4071  70.6137 0003267  41.6634 270.8087  1.00272041 82967
UFO 11 (USA 174)        
1 28117U 03057A   26194.86999984 -.00000114  00000+0  00000+0 0  9993
2 28117   8.9566  33.6924 0002680  92.9080 193.9188  1.00270246 82715
USA 176 (DSP 22)        
1 28158U 04004A   26194.40864323 -.00000307  00000+0  00000+0 0  9993
2 28158  12.0970  25.8717 0001144 287.5538  75.5682  1.00266283 33202
ABS-4 (MOBISAT-1)       
1 28184U 04007A   26194.78692543  .00000029  00000+0  00000+0 0  9999
2 28184   6.1062  71.6818 0004612  42.3108 161.9030  1.00273052 52605
INTELSAT 10-02          
1 28358U 04022A   26194.84592137 -.00000016  00000+0  00000+0 0  9991
2 28358   0.0548 249.8883 0000504 343.0769   2.2756  1.00271184 80822
ANIK F2                 
1 28378U 04027A   26194.61028014 -.00000057  00000+0  00000+0 0  9996
2 28378   3.3535  79.0935 0003550  31.5919 289.3716  1.00271258 41527
AMC-15                  
1 28446U 04041A   26194.67572287 -.00000093  00000+0  00000+0 0  9990
2 28446   0.0307 311.3076 0002079 154.5279 323.9259  1.00270544 79561
NSS-10                  
1 28526U 05003A   26194.84700663 -.00000262  00000+0  00000+0 0  9996
2 28526   6.5141  70.1256 0002593  39.9970  89.0632  1.00270414 53420
INMARSAT 4-F1           
1 28628U 05009A   26194.81015220  .00000024  00000+0  00000+0 0  9995
2 28628   5.2034  42.7841 0002357  71.8828 286.7662  1.00270943 77938
DIRECTV 8               
1 28659U 05019A   26194.75090669 -.00000003  00000+0  00000+0 0  9991
2 28659   0.0141 344.2437 0003030 142.9940 315.6561  1.00271366 77333
GALAXY 28 (G-28)        
1 28702U 05022A   26194.84080801 -.00000208  00000+0  00000+0 0  9998
2 28702   3.3650  78.6041 0002485  24.2488 104.4493  1.00273598 52244
THAICOM 4               
1 28786U 05028A   26194.79853881 -.00000368  00000+0  00000+0 0  9993
2 28786   0.3118  85.5220 0001378  10.2341 242.8759  1.00270373 52511
ANIK F1R                
1 28868U 05036A   26194.61106014 -.00000083  00000+0  00000+0 0  9997
2 28868   4.3779  76.2509 0003704  28.3603 299.5541  1.00271332 46711
SYRACUSE 3A             
1 28885U 05041B   26194.85540220  .00000119  00000+0  00000+0 0  9998
2 28885   4.7078  75.5114 0002734  32.6807 178.1153  1.00273542 76018
INMARSAT 4-F2           
1 28899U 05044A   26194.54909825 -.00000268  00000+0  00000+0 0  9998
2 28899   5.1293  43.6584 0002772  61.2305 167.7008  1.00270497 75789
METEOSAT-9 (MSG-2)      
1 28912U 05049B   26194.71255669  .00000113  00000+0  00000+0 0  9996
2 28912   9.4193  53.9017 0002102 356.2419 183.6226  1.00271253  7264
EUTELSAT 174A           
1 28924U 05052A   26194.80937220 -.00000001  00000+0  00000+0 0  9990
2 28924   4.2838  76.1966 0005784  38.5354 282.2675  1.00270706 52595
ECHOSTAR 10             
1 28935U 06003A   26194.68162455 -.00000060  00000+0  00000+0 0  9990
2 28935   0.0329 312.3833 0001041 137.4861 336.8876  1.00270707 74727
SPAINSAT                
1 28945U 06007A   26194.27520359 -.00000221  00000+0  00000+0 0  9990
2 28945   0.6285  86.0849 0004604  26.1877 247.7634  1.00269770 74489
JCSAT-5A                
1 29045U 06010A   26194.87227748 -.00000334  00000+0  00000+0 0  9993
2 29045   1.1761  83.9161 0001638  25.9333 267.9447  1.00269888 74034
ASTRA 1KR               
1 29055U 06012A   26194.82406007  .00000113  00000+0  00000+0 0  9992
2 29055   0.5404  83.1765 0003287  21.8899 142.2860  1.00269747 45966
GALAXY 16 (G-16)        
1 29236U 06023A   26194.82644560 -.00000132  00000+0  00000+0 0  9995
2 29236   0.0145 190.5303 0002502 294.4717   5.2134  1.00271125 73248
EUTELSAT 33F            
1 29270U 06032A   26194.78142676  .00000149  00000+0  00000+0 0  9996
2 29270   1.7281  81.9460 0003387  27.7096 136.3691  1.00270978 47577
JCSAT-3A                
1 29272U 06033A   26194.87149747 -.00000350  00000+0  00000+0 0  9990
2 29272   0.0123 356.7832 0001764 117.1779 259.5198  1.00271116 48005
